STARLINK-5745           
1 55575U 23020G   26068.20377312 -.00008571  00000+0 -61955-3 0  9992
2 55575  43.0042   7.5000 0001411 274.2278  85.8403 15.02575392168847
STRIX-5                 
1 65971U 25229A   26068.48916036  .00006129  00000+0  44900-3 0  9994
2 65971  41.9265 119.8574 0036941 120.2079 240.2413 15.03509399 21964
